NORAD_CAT_ID,OBJECT_NAME,OBJECT_TYPE,EPOCH,MEAN_MOTION,ECCENTRICITY,INCLINATION,RA_OF_ASC_NODE,ARG_OF_PERICENTER,MEAN_ANOMALY,BSTAR,MEAN_MOTION_DOT,MEAN_MOTION_DDOT,TLE_LINE0,TLE_LINE1,TLE_LINE2,SEMIMAJOR_AXIS,PERIOD,APOGEE,PERIGEE,DECAYED
53605.0,STARLINK-4693,PAYLOAD,2024-07-10 10:30:52,15.0884441,0.0001405,53.2167,89.9545,90.7719,269.3434,0.00021071,3.067e-05,0.0,0 STARLINK-4693,1 53605U 22104T   24192.43810216  .00003067  00000-0  21071-3 0  9991,2 53605  53.2167  89.9545 0001405  90.7719 269.3434 15.08844410103255,6917.867,95.437,540.704,538.76,0.0
53605.0,STARLINK-4693,PAYLOAD,2024-07-10 21:38:34,15.08837131,0.0001366,53.2165,87.8683,96.4208,263.694,0.00013693,1.892e-05,0.0,0 STARLINK-4693,1 53605U 22104T   24192.90178734  .00001892  00000-0  13693-3 0  9990,2 53605  53.2165  87.8683 0001366  96.4208 263.6940 15.08837131104011,6917.889,95.438,540.699,538.809,0.0
53605.0,STARLINK-4693,PAYLOAD,2024-07-11 02:24:43,15.08843854,0.000132,53.216,86.9779,107.8515,252.2621,0.00023767,3.497e-05,0.0,0 STARLINK-4693,1 53605U 22104T   24193.10050553  .00003497  00000-0  23767-3 0  9997,2 53605  53.2160  86.9779 0001320 107.8515 252.2621 15.08843854103355,6917.869,95.437,540.647,538.82,0.0
53605.0,STARLINK-4693,PAYLOAD,2024-07-12 10:12:25,15.08852296,0.0001155,53.2156,81.0323,110.3417,249.7699,0.00027543,4.1e-05,0.0,0 STARLINK-4693,1 53605U 22104T   24194.42529949  .00004100  00000-0  27543-3 0  9991,2 53605  53.2156  81.0323 0001155 110.3417 249.7699 15.08852296103555,6917.843,95.437,540.507,538.909,0.0
53605.0,STARLINK-4693,PAYLOAD,2024-07-12 22:55:31,15.08841428,0.0001487,53.2163,78.6533,98.5881,261.5279,9.601e-05,1.24e-05,0.0,0 STARLINK-4693,1 53605U 22104T   24194.95522479  .00001240  00000-0  96010-4 0  9998,2 53605  53.2163  78.6533 0001487  98.5881 261.5279 15.08841428104325,6917.876,95.437,540.77,538.712,0.0
53605.0,STARLINK-4693,PAYLOAD,2024-07-13 02:06:17,15.08844133,0.0001457,53.2164,78.0586,99.2817,260.834,0.00010589,1.398e-05,0.0,0 STARLINK-4693,1 53605U 22104T   24195.08770352  .00001398  00000-0  10589-3 0  9998,2 53605  53.2164  78.0586 0001457  99.2817 260.8340 15.08844133103654,6917.868,95.437,540.741,538.725,0.0
53605.0,STARLINK-4693,PAYLOAD,2024-07-13 22:46:18,15.08843395,0.0001295,53.217,74.1941,89.9144,270.1997,0.00017226,2.455e-05,0.0,0 STARLINK-4693,1 53605U 22104T   24195.94882528  .00002455  00000-0  17226-3 0  9992,2 53605  53.2170  74.1941 0001295  89.9144 270.1997 15.08843395104474,6917.87,95.437,540.631,538.839,0.0
53605.0,STARLINK-4693,PAYLOAD,2024-07-14 21:01:42,15.08837344,0.0001265,53.2161,70.0289,86.6765,273.4372,0.00011377,1.523e-05,0.0,0 STARLINK-4693,1 53605U 22104T   24196.87618891  .00001523  00000-0  11377-3 0  9991,2 53605  53.2161  70.0289 0001265  86.6765 273.4372 15.08837344103923,6917.889,95.438,540.629,538.878,0.0
53605.0,STARLINK-4693,PAYLOAD,2024-07-14 22:37:07,15.08810055,0.0001419,53.2161,69.733,95.8342,264.2811,0.00094665,0.00014798,0.0,0 STARLINK-4693,1 53605U 22104T   24196.94244282  .00014798  00000-0  94665-3 0  9997,2 53605  53.2161  69.7330 0001419  95.8342 264.2811 15.08810055104623,6917.972,95.439,540.819,538.855,0.0
53605.0,STARLINK-4693,PAYLOAD,2024-07-15 08:09:23,15.08855835,0.0001199,53.2168,67.9482,87.7513,272.3616,0.00030649,4.595e-05,0.0,0 STARLINK-4693,1 53605U 22104T   24197.33985771  .00004595  00000-0  30649-3 0  9992,2 53605  53.2168  67.9482 0001199  87.7513 272.3616 15.08855835103990,6917.832,95.437,540.526,538.868,0.0
53605.0,STARLINK-4693,PAYLOAD,2024-07-15 20:52:29,15.08833064,0.0001473,53.217,65.5722,95.6092,264.5068,-4.131e-05,-9.45e-06,0.0,0 STARLINK-4693,1 53605U 22104T   24197.86979042 -.00000945  00000-0 -41310-4 0  9999,2 53605  53.2170  65.5722 0001473  95.6092 264.5068 15.08833064104073,6917.902,95.438,540.786,538.748,0.0
53605.0,STARLINK-4693,PAYLOAD,2024-07-15 22:27:53,15.08834317,0.000149,53.2176,65.2781,99.2225,260.8936,-9.3872e-06,-4.37e-06,0.0,0 STARLINK-4693,1 53605U 22104T   24197.93603025 -.00000437  00000-0 -93872-5 0  9999,2 53605  53.2176  65.2781 0001490  99.2225 260.8936 15.08834317104770,6917.898,95.438,540.794,538.732,0.0
53605.0,STARLINK-4693,PAYLOAD,2024-07-16 00:03:16,15.08838363,0.0001556,53.2184,64.9796,95.8562,264.2607,4.7784e-05,4.73e-06,0.0,0 STARLINK-4693,1 53605U 22104T   24198.00226853  .00000473  00000-0  47784-4 0  9996,2 53605  53.2184  64.9796 0001556  95.8562 264.2607 15.08838363104789,6917.885,95.438,540.827,538.674,0.0
53605.0,STARLINK-4693,PAYLOAD,2024-07-16 22:18:40,15.08840144,0.0001331,53.2178,60.8146,88.2154,271.8991,0.00012159,1.648e-05,0.0,0 STARLINK-4693,1 53605U 22104T   24198.92963018  .00001648  00000-0  12159-3 0  9990,2 53605  53.2178  60.8146 0001331  88.2154 271.8991 15.08840144104926,6917.88,95.438,540.666,538.824,0.0
53605.0,STARLINK-4693,PAYLOAD,2024-07-17 01:29:26,15.08842837,0.0001315,53.217,60.2191,85.385,274.7292,0.00016247,2.299e-05,0.0,0 STARLINK-4693,1 53605U 22104T   24199.06210881  .00002299  00000-0  16247-3 0  9994,2 53605  53.2170  60.2191 0001315  85.3850 274.7292 15.08842837104944,6917.872,95.437,540.646,538.827,0.0
53605.0,STARLINK-4693,PAYLOAD,2024-07-17 22:09:27,15.08836363,0.0001305,53.2166,56.3516,79.7775,280.3365,7.5897e-05,9.2e-06,0.0,0 STARLINK-4693,1 53605U 22104T   24199.92323506  .00000920  00000-0  75897-4 0  9994,2 53605  53.2166  56.3516 0001305  79.7775 280.3365 15.08836363105074,6917.892,95.438,540.659,538.854,0.0
53605.0,STARLINK-4693,PAYLOAD,2024-07-18 07:41:45,15.08848461,0.000118,53.2164,54.5669,89.1103,271.0024,0.00019129,2.759e-05,0.0,0 STARLINK-4693,1 53605U 22104T   24200.32066950  .00002759  00000-0  19129-3 0  9995,2 53605  53.2164  54.5669 0001180  89.1103 271.0024 15.08848461104443,6917.855,95.437,540.536,538.903,0.0
53605.0,STARLINK-4693,PAYLOAD,2024-07-18 20:24:51,15.08834113,0.0001701,53.2182,52.1847,85.606,274.5126,4.4238e-05,4.16e-06,0.0,0 STARLINK-4693,1 53605U 22104T   24200.85060088  .00000416  00000-0  44238-4 0  9997,2 53605  53.2182  52.1847 0001701  85.6060 274.5126 15.08834113104526,6917.898,95.438,540.94,538.587,0.0
53605.0,STARLINK-4693,PAYLOAD,2024-07-18 23:35:38,15.08837577,0.0001768,53.2187,51.5893,82.3295,277.7898,9.9646e-05,1.298e-05,0.0,0 STARLINK-4693,1 53605U 22104T   24200.98307998  .00001298  00000-0  99646-4 0  9997,2 53605  53.2187  51.5893 0001768  82.3295 277.7898 15.08837577105239,6917.888,95.438,540.976,538.53,0.0
53605.0,STARLINK-4693,PAYLOAD,2024-07-19 20:15:38,15.08843672,0.0001313,53.2166,47.7216,113.6026,246.5104,0.00013409,1.847e-05,0.0,0 STARLINK-4693,1 53605U 22104T   24201.84419533  .00001847  00000-0  13409-3 0  9994,2 53605  53.2166  47.7216 0001313 113.6026 246.5104 15.08843672104672,6917.869,95.437,540.642,538.826,0.0
53605.0,STARLINK-4693,PAYLOAD,2024-07-20 07:23:20,15.08849846,0.0001376,53.2175,45.6446,106.6495,253.4649,0.00020279,2.942e-05,0.0,0 STARLINK-4693,1 53605U 22104T   24202.30787265  .00002942  00000-0  20279-3 0  9996,2 53605  53.2175  45.6446 0001376 106.6495 253.4649 15.08849846105430,6917.85,95.437,540.667,538.763,0.0
53605.0,STARLINK-4693,PAYLOAD,2024-07-20 20:06:25,15.08839408,0.0001512,53.2182,43.2663,101.7504,258.3658,6.8523e-05,8.03e-06,0.0,0 STARLINK-4693,1 53605U 22104T   24202.83779938  .00000803  00000-0  68523-4 0  9991,2 53605  53.2182  43.2663 0001512 101.7504 258.3658 15.08839408104821,6917.882,95.438,540.793,538.701,0.0
53605.0,STARLINK-4693,PAYLOAD,2024-07-21 18:21:49,15.08843643,0.0001346,53.2177,39.1052,94.6345,265.48,5.4738e-05,5.83e-06,0.0,0 STARLINK-4693,1 53605U 22104T   24203.76515775  .00000583  00000-0  54738-4 0  9999,2 53605  53.2177  39.1052 0001346  94.6345 265.4800 15.08843643105655,6917.869,95.437,540.665,538.803,0.0
53605.0,STARLINK-4693,PAYLOAD,2024-07-24 21:04:56,15.08839538,0.0001341,53.2179,25.1294,88.2901,271.8244,1.2416e-05,-9e-07,0.0,0 STARLINK-4693,1 53605U 22104T   24206.87843584 -.00000090  00000-0  12416-4 0  9997,2 53605  53.2179  25.1294 0001341  88.2901 271.8244 15.08839538105439,6917.882,95.438,540.674,538.819,0.0
53605.0,STARLINK-4693,PAYLOAD,2024-07-26 04:52:40,15.08837406,0.0002046,53.2198,19.1833,89.026,271.0966,2.3135e-05,8e-07,0.0,0 STARLINK-4693,1 53605U 22104T   24208.20324692  .00000080  00000-0  23135-4 0  9998,2 53605  53.2198  19.1833 0002046  89.0260 271.0966 15.08837406105639,6917.888,95.438,541.169,538.338,0.0
53605.0,STARLINK-4693,PAYLOAD,2024-07-26 20:46:31,15.08840706,0.000166,53.2151,16.2073,98.6807,261.4373,0.00018873,2.717e-05,0.0,0 STARLINK-4693,1 53605U 22104T   24208.86563882  .00002717  00000-0  18873-3 0  9997,2 53605  53.2151  16.2073 0001660  98.6807 261.4373 15.08840706105739,6917.878,95.438,540.892,538.595,0.0
53605.0,STARLINK-4693,PAYLOAD,2024-07-27 04:43:26,15.08848022,0.0001527,53.2223,14.7237,73.4544,286.6616,0.00023066,3.386e-05,0.0,0 STARLINK-4693,1 53605U 22104T   24209.19683353  .00003386  00000-0  23066-3 0  9993,2 53605  53.2223  14.7237 0001527  73.4544 286.6616 15.08848022106475,6917.856,95.437,540.777,538.665,0.0
53605.0,STARLINK-4693,PAYLOAD,2024-07-27 11:04:59,15.08846678,0.0002167,53.2124,13.5301,95.6439,264.48,0.00012751,1.742e-05,0.0,0 STARLINK-4693,1 53605U 22104T   24209.46179904  .00001742  00000-0  12751-3 0  9998,2 53605  53.2124  13.5301 0002167  95.6439 264.4800 15.08846678106513,6917.86,95.437,541.224,538.226,0.0
53605.0,STARLINK-4693,PAYLOAD,2024-07-27 22:12:41,15.08839091,0.0001869,53.2148,11.445,116.8669,243.2514,4.9169e-05,4.94e-06,0.0,0 STARLINK-4693,1 53605U 22104T   24209.92548403  .00000494  00000-0  49169-4 0  9990,2 53605  53.2148  11.4450 0001869 116.8669 243.2514 15.08839091105898,6917.883,95.438,541.041,538.455,0.0
53605.0,STARLINK-4693,PAYLOAD,2024-07-28 18:52:42,15.08844491,0.0001388,53.2178,7.5825,116.0486,244.0649,-0.00013179,-2.385e-05,0.0,0 STARLINK-4693,1 53605U 22104T   24210.78660673 -.00002385  00000-0 -13179-3 0  9994,2 53605  53.2178   7.5825 0001388 116.0486 244.0649 15.08844491106718,6917.867,95.437,540.692,538.771,0.0
